CAS-2T & KS-1Q          
1 41847U 16066G   20351.77649889  .00000114  00000-0  26895-4 0  9992
2 41847  98.6300  43.8921 0366282  45.5931 317.4629 14.38126738215624
NAYIF-1 (EO-88)         
1 42017U 17008BX  20351.74979651  .00002461  00000-0  94951-4 0  9994
2 42017  97.3404  56.5053 0007170  48.2657 311.9194 15.27217643213365
ZHUHAI-1 02 (CAS-4B)    
1 42759U 17034B   20352.19846443  .00000371  00000-0  35839-4 0  9996
2 42759  43.0171 102.8910 0008726  98.6149 333.7386 15.10001706193597
ZHUHAI-1 01 (CAS-4A)    
1 42761U 17034D   20352.19935218  .00000412  00000-0  38222-4 0  9993
2 42761  43.0169 102.0673 0009066 101.9577 330.5239 15.10082113193599
MAX VALIER SAT          
1 42778U 17036P   20351.69101635  .00001465  00000-0  64992-4 0  9997
2 42778  97.2820  40.0757 0013740 100.0782 260.2006 15.23053276193467
RADFXSAT (FOX-1B)       
1 43017U 17073E   20351.71321330  .00000575  00000-0  49732-4 0  9990
2 43017  97.7170 256.8539 0256106 176.0386 184.2938 14.79213581166107
FOX-1D (AO-92)          
1 43137U 18004AC  20351.84745330  .00001749  00000-0  73754-4 0  9997
2 43137  97.4284  61.6260 0010238 128.4812 231.7346 15.24614542162835
DIWATA-2B               
1 43678U 18084H   20352.00151004 -.00000104  00000-0 -46329-5 0  9998
2 43678  97.9035 110.6277 0008862 298.8927  61.1373 14.91685040116238
ES'HAIL 2               
1 43700U 18090A   20351.81545090  .00000144  00000-0  00000-0 0  9994
2 43700   0.0173 338.3207 0001311 317.5874 109.3598  1.00272193  7539
FOX-1CLIFF (AO-95)      
1 43770U 18099N   20351.75614933  .00000661  00000-0  65361-4 0  9995
2 43770  97.6884  59.7837 0013310 312.4732  47.5362 14.95139808111158
ITASAT 1                
1 43786U 18099AE  20352.18112812 -.00000007  00000-0  45910-5 0  9993
2 43786  97.6898  60.7509 0013957 303.2471  56.7412 14.95457095111242
JY1SAT (JO-97)          
1 43803U 18099AX  20352.17263270  .00000085  00000-0  12770-4 0  9999
2 43803  97.6862  60.5217 0013880 303.6386  56.3511 14.95665973111243
PSAT2 (NO-104)          
1 44354U 19036R   20352.05099732  .00016445  00000-0  22956-3 0  9993
2 44354  28.5275 258.1730 0346476 106.4117 257.4844 15.08158776 81356
BRICSAT2 (NO-103)       
1 44355U 19036S   20351.99145078  .00031822  00000-0  40137-3 0  9998
2 44355  28.5263 237.0652 0307767 140.6930 221.6434 15.18112657 81566
JAISAT-1                
1 44419U 19038F   20351.89841388  .00001462  00000-0  85757-4 0  9992
2 44419  97.5642 311.6443 0020126 218.5638 141.4156 15.13213133 80185
DUCHIFAT-3              
1 44854U 19089C   20351.65917525  .00000781  00000-0  69201-4 0  9991
2 44854  36.9653 101.4327 0006936  93.0862 267.0653 14.99253437 55656
RS-44 & BREEZE-KM R/B   
1 44909U 19096E   20351.75861050  .00000040  00000-0  11029-3 0  9994
2 44909  82.5221 234.1735 0217670 160.0202 200.9590 12.79707758 45509
ORBITAL FACTORY 2 (OF-2)
1 45113U 19071C   20351.86188425  .00003510  00000-0  11491-3 0  9993
2 45113  51.6404 201.8800 0012240 357.8301   2.2626 15.34379068 49121
HUSKYSAT-1              
1 45119U 19071J   20351.88303578  .00002440  00000-0  83034-4 0  9993
2 45119  51.6406 201.2708 0011515 354.6171   5.4685 15.34515133 49129
BY70-2                  
1 45857U 20042B   20352.24628600  .00001452  00000-0  21534-3 0  9997
2 45857  98.0008  63.8195 0012330  83.9663 276.2967 14.76550751 24659
SALSAT                  
1 46495U 20068K   20351.89122308  .00000929  00000-0  72876-4 0  9992
2 46495  97.6779 284.6678 0016299 334.8755  25.1675 15.03302072 11908
BY70-3                  
1 46839U 20079N   20352.20906715  .00003322  00000-0  10833-3 0  9998
2 46839  97.2625  63.6467 0008525 130.8763 314.0954 15.32461016  6284
